[{"OBJECT_NAME":"ICEYE-X64","OBJECT_ID":"2026-004L","EPOCH":"2026-03-09T22:08:51.177984","MEAN_MOTION":14.87676909,"ECCENTRICITY":0.00074629,"INCLINATION":97.8018,"RA_OF_ASC_NODE":69.1111,"ARG_OF_PERICENTER":100.9469,"MEAN_ANOMALY":259.2588,"EPHEMERIS_TYPE":0,"CLASSIFICATION_TYPE":"U","NORAD_CAT_ID":67373,"ELEMENT_SET_NO":999,"REV_AT_EPOCH":853,"BSTAR":0.00035385661,"MEAN_MOTION_DOT":3.169e-5,"MEAN_MOTION_DDOT":0},{"OBJECT_NAME":"CAPELLA-19 (ACADIA-9)","OBJECT_ID":"2026-004X","EPOCH":"2026-03-09T22:06:37.188864","MEAN_MOTION":14.86834998,"ECCENTRICITY":0.00013705,"INCLINATION":97.8004,"RA_OF_ASC_NODE":69.1074,"ARG_OF_PERICENTER":86.5617,"MEAN_ANOMALY":273.5756,"EPHEMERIS_TYPE":0,"CLASSIFICATION_TYPE":"U","NORAD_CAT_ID":67384,"ELEMENT_SET_NO":999,"REV_AT_EPOCH":852,"BSTAR":0.00077081873,"MEAN_MOTION_DOT":6.825e-5,"MEAN_MOTION_DDOT":0}]
